__OBJECTID,PUBLIC WATER SYSTEM ID,Water System Name,Status,Principal County Served,Primary Source Water Type,Longitude,Latitude,attribute_7,Note,attribute_9,x,y
1,KY0011016,COLUMBIA/ADAIR UTILITIES DISTRICT,A,ADAIR,SW,-85.29938,37.11866,,SW,,-85.2993800307049,37.11865998333
2,KY0020956,ALLEN COUNTY WATER DISTRICT,A,ALLEN,SWP,-86.2133532,36.7552186,,SWP,,-86.2133532197212,36.7552186201027
3,KY0020386,SCOTTSVILLE WATER DEPARTMENT,A,ALLEN,SW,-86.1915,36.75351,,GW,,-86.191499993636,36.7535100350067
4,KY0030239,LAWRENCEBURG WATER & SEWER DEPT,A,ANDERSON,SW,-84.89608,38.03734,,GWP,,-84.8960800364265,38.037340026346
5,KY0030660,SOUTH ANDERSON WATER DISTRICT,A,ANDERSON,SWP,-84.925295,38.01542,,A,,-84.9252949562651,38.0154199944757
6,KY0030660,SO ANDERSON WATER DISTRICT,A,ANDERSON,SWP,-84.89608,38.037338,,,,-84.8960800364265,38.0373379745336
7,KY0040020,BARLOW WATER SYSTEM,A,BALLARD,GW,-89.040807,37.051376,,,,-89.0408070443575,37.0513759961667
8,KY0040223,KEVIL WATER DEPARTMENT,A,BALLARD,GW,-88.885478,37.084573,,,,-88.8854780011074,37.0845730138096
9,KY0040228,LACENTER MUNICIPAL WATER CO,A,BALLARD,GW,-88.9736113,37.0761736,,,,-88.9736112644748,37.0761736001171
10,KY0043507,SOUTHLAND RANCH,A,BALLARD,GW,-88.849351,36.976413,,,,-88.8493509943152,36.9764129757011
11,KY0040469,WICKLIFFE MUNICIPAL WATER SYSTEM,A,BALLARD,GW,-89.0910322,36.9648839,,,,-89.0910322112187,36.9648839328263
12,KY0050344,"CAVELAND ENVIRONMENTAL AUTHORITY, INC.",A,BARREN,SWP,-85.9601537,37.1314193,,,,-85.9601537144132,37.1314193141407
13,KY0050929,GLASGOW WATER COMPANY,A,BARREN,SW,-85.914051,36.996847,,,,-85.9140510062223,36.9968470084373
14,KY0060022,BATH COUNTY WATER DISTRICT,A,BATH,SWP,-83.6140274,38.1199859,,,,-83.6140273699709,38.1199858991003
15,KY0060338,OWINGSVILLE WATER WORKS,A,BATH,SWP,-83.7622104,38.1362311,,,,-83.7622104049673,38.1362310733549
16,KY0060392,SHARPSBURG WATER DISTRICT,A,BATH,SWP,-83.930084,38.200551,,,,-83.9300839720024,38.2005509958072
17,KY0070729,BELL COUNTY FORESTRY CAMP,A,BELL,SW,-83.671028,36.734807,,,,-83.6710279900311,36.7348069653999
18,KY0072713,CUMBERLAND GAP NHP/HENSLEY,A,BELL,GW,-83.7231,36.6172,,,,-83.7231000032849,36.6172000256625
19,KY0072714,CUMBERLAND GAP NHP/PINNACLE,A,BELL,GW,-83.7231,36.6172,,,,-83.7231000032849,36.6172000256625
20,KY0073691,FONDE WATER SYSTEM,A,BELL,GWP,-83.6952073,36.7614654,,,,-83.695207313713,36.7614654026465
21,KY0070353,PINEVILLE WATER SYSTEM,A,BELL,SW,-83.6952073,36.7614654,,,,-83.695207313713,36.7614654026465
22,KY0070282,WATER SERVICE CORPORATION OF KENTUCKY,A,BELL,SW,-83.7231,36.6172,,,,-83.7231000032849,36.6172000256625
23,KY0080928,ARLINGHAUS PROPERTY,A,BOONE,GW,-84.7736,39.015,,,,-84.7735999576655,39.0149999882288
24,KY0080976,BIRKLE WATER SUPPLY,A,BOONE,GW,-87.836366,36.862814,,,,-87.8363660336724,36.862814002458
25,KY0080034,BOONE COUNTY WATER & SEWER DISTRICT,A,BOONE,SWP,-84.715043,39.023483,,,,-84.7150430063756,39.0234830051734
26,KY0081013,BOONE-FLORENCE WATER COMMISSION,A,BOONE,SWP,-84.64223,38.9977285,,,,-84.6422299711897,38.9977284656648
27,KY0082411,CAMP MICHAELS DAN BEARD COUNCIL,A,BOONE,GWP,-84.7427883,38.941752,,,,-84.7427882824094,38.9417520180251
28,KY0082081,CAMP TURNABOUT,A,BOONE,GW,-84.6617348,38.9845313,,,,-84.6617348214592,38.9845313266726
29,KY0082082,DUKE ENERGY KY EAST BEND,A,BOONE,GW,-86.3893755,39.7077538,,,,-86.3893754945301,39.7077538131125
30,KY0080135,FLORENCE WATER & SEWER,A,BOONE,SWP,-84.64223,38.9977285,,,,-84.6422299711897,38.9977284656648
31,KY0082592,KELLY ELEMENTARY SCHOOL,A,BOONE,GW,-84.8270387,38.9832178,,,,-84.8270386677926,38.9832177899551
32,KY0082894,POTTERS RANCH,A,BOONE,GW,-84.632367,38.872037,,,,-84.6323670083593,38.8720369954176
33,KY0082242,RIVER RIDGE PARK INC,A,BOONE,GW,-84.824638,38.9599765,,,,-84.8246380100273,38.9599764997375
34,KY0080910,TRAPP WATER COMPANY,A,BOONE,GW,-84.7736,39.015,,,,-84.7735999576655,39.0149999882288
35,KY0080442,WALTON WATERWORKS DEPARTMENT,A,BOONE,SWP,-84.611225,38.866178,,,,-84.6112249784845,38.8661780230496
36,KY0090287,KENTUCKY AMERICAN WATER- MILLERSBURG,A,BOURBON,SWP,-84.4634596,38.0158615,,,,-84.4634595702637,38.0158614771375
37,KY0090343,PARIS WATER WORKS,A,BOURBON,SW,-84.2518636,38.2114715,,,,-84.251863561046,38.2114715216804
38,KY0100011,ASHLAND WATER WORKS,A,BOYD,SW,-82.6127643,38.4535862,,,,-82.612764255976,38.4535862300056
39,KY0100944,BIG SANDY WATER DISTRICT,A,BOYD,SWP,-82.6321,38.3799,,,,-82.632100043309,38.3799000298926
40,KY0100064,CANNONSBURG WATER DISTRICT,A,BOYD,SWP,-82.7173,38.4218,,,,-82.7173000377791,38.4218000114981
41,KY0110097,DANVILLE CITY WATER WORKS,A,BOYLE,SW,-84.7623424,37.6498268,,,,-84.7623423603564,37.6498268245096
42,KY0110345,PARKSVILLE WATER DISTRICT,A,BOYLE,SWP,-84.8896709,37.6018316,,,,-84.8896709162005,37.6018316103905
43,KY0120013,AUGUSTA REGIONAL WTP,A,BRACKEN,GW,-84.0073163,38.7727278,,,,-84.0073162692285,38.7727278114391
44,KY0120039,BRACKEN COUNTY WATER DISTRICT,A,BRACKEN,GWP,-84.0383877,38.6681639,,,,-84.0383877372648,38.6681638964919
45,KY0120044,BROOKSVILLE UTILITY,A,BRACKEN,GWP,-84.0786,38.6644,,,,-84.0786000124746,38.6644000278416
46,KY0131012,BREATHITT COUNTY WATER DISTRICT,A,BREATHITT,SWP,-83.3846042,37.5536587,,,,-83.3846042041083,37.5536587060418
47,KY0130208,JACKSON MUNICIPAL WATER WORKS,A,BREATHITT,SW,-83.3853929,37.5525871,,,,-83.3853929249278,37.5525870976835
48,KY0130949,MT CARMEL HIGH BOARDING SCHOOL,A,BREATHITT,GW,-83.2913,37.4868,,,,-83.291299968471,37.4868000227478
49,KY0140079,CLOVERPORT WATER & SEWER SYSTEM,A,BRECKINRIDGE,GWP,-86.6327573,37.8370036,,,,-86.632757312098,37.8370036119326
50,KY0140966,HARDINSBURG RO WTP,A,BRECKINRIDGE,GW,-86.461016,37.780113,,,,-86.4610159587756,37.7801129684772
51,KY0140206,IRVINGTON WATER SYSTEM,A,BRECKINRIDGE,GWP,-86.2965,37.8762,,,,-86.2965000247779,37.8762000247912
52,KY0150242,LEBANON JUNCTION WATER WORKS,A,BULLITT,SWP,-85.7309386,37.8342247,,,,-85.7309385983704,37.8342247047415
53,KY0150300,MT WASHINGTON WATER COMPANY,A,BULLITT,SWP,-85.5432228,38.0497564,,,,-85.5432227738451,38.049756400838
54,KY0160052,BUTLER COUNTY WATER SYSTEM INC,A,BUTLER,SW,-86.684412,37.224731,,,,-86.6844119680709,37.2247309642706
55,KY0160294,MORGANTOWN WATER SYSTEM,A,BUTLER,SW,-86.6854631,37.2252584,,,,-86.6854630867848,37.2252584250164
56,KY0170528,CALDWELL COUNTY WATER DISTRICT,A,CALDWELL,SWP,-87.8826308,37.1096148,,,,-87.8826307979405,37.1096147990549
57,KY0170146,FREDONIA WATER DEPARTMENT,A,CALDWELL,SWP,-88.059809,37.204948,,,,-88.059809024857,37.2049480225916
58,KY0170360,PRINCETON WATER & SEWER COMMISSION,A,CALDWELL,SW,-87.893041,37.072994,,,,-87.8930410144421,37.0729940057101
59,KY0180509,CENTER RIDGE WATER DISTRICT #2,A,CALLOWAY,GW,-88.111351,36.561652,,,,-88.1113510320933,36.5616520085349
60,KY0180502,CENTER RIDGE WATER DISTRICT #3,A,CALLOWAY,GW,-88.111351,36.561652,,,,-88.1113510320933,36.5616520085349
61,KY0183106,CENTER RIDGE WATER DISTRICT #4,A,CALLOWAY,GW,-88.111351,36.561652,,,,-88.1113510320933,36.5616520085349
62,KY0180549,CENTER RIDGE WATER SYSTEM,A,CALLOWAY,GW,-88.111351,36.561652,,,,-88.1113510320933,36.5616520085349
63,KY0183007,CYPRESS COVE RV PARK LLC,A,CALLOWAY,GW,-88.0955,36.55,,,,-88.0954999894104,36.5499999661333
64,KY0182841,CYPRESS SPRINGS RESORT,A,CALLOWAY,GW,-88.0955,36.55,,,,-88.0954999894104,36.5499999661333
65,KY0180102,DEXTER ALMO HEIGHTS WATER DISTRICT,A,CALLOWAY,GWP,-88.3006075,36.6963059,,,,-88.3006074673308,36.6963058746677
66,KY0182842,KENTUCKY BEACH RESORT,A,CALLOWAY,GW,-88.3032,36.6099,,,,-88.3032000052408,36.6098999773237
67,KY0183626,LAKEVIEW COTTAGES & MARINA,A,CALLOWAY,GW,-88.080418,36.50239,,,,-88.0804179944422,36.5023900209495
68,KY0183132,MISSING HILL RESORT,A,CALLOWAY,GW,-88.075345,36.502289,,,,-88.0753450283698,36.5022889998471
69,KY0183334,MSU HANCOCK BIO STATION,A,CALLOWAY,GW,-88.117164,36.734806,,,,-88.1171640302968,36.7348060295026
70,KY0180308,MURRAY WATER DISTRICT #2,A,CALLOWAY,GWP,-88.3032,36.6099,,,,-88.3032000052408,36.6098999773237
71,KY0180306,MURRAY WATER SYSTEM,A,CALLOWAY,GW,-88.299632,36.607544,,,,-88.2996319867638,36.6075439939567
72,KY0183519,NEW CONCORD DOLLAR GENERAL STORE,A,CALLOWAY,GW,-88.829702,35.682824,,,,-88.8297019644426,35.6828239823019
73,KY0182057,PARADISE RESORT,A,CALLOWAY,GW,-88.3032,36.6099,,,,-88.3032000052408,36.6098999773237
74,KY0183544,SHILOH DOLLAR GENERAL-SUSAN COX,A,CALLOWAY,GW,-88.193711,36.690442,,,,-88.1937110027926,36.6904419799381
75,KY0180185,SOUTH 641 WATER DISTRICT,A,CALLOWAY,GWP,-83.412567,37.8005868,,,,-83.4125669622724,37.800586798398
76,KY0180914,STELLA TRAILER PARK,A,CALLOWAY,GW,-88.40587,36.598347,,,,-88.4058699861988,36.5983470235653
77,KY0182822,SUNSET HARBOR HILL CAMPGROUND,A,CALLOWAY,GW,-88.117343,36.727072,,,,-88.1173429747014,36.7270720320501
78,KY0183715,WESTERN SHORES PAVILION,A,CALLOWAY,GW,-88.301316,36.955301,,,,-88.3013159685954,36.955300977516
79,KY0200009,ARLINGTON WATER DEPARTMENT,A,CARLISLE,GW,-89.012556,36.789275,,,,-89.0125560168187,36.789274994087
80,KY0200018,BARDWELL CITY UTILITIES,A,CARLISLE,GW,-89.011081,36.871756,,,,-89.0110809831222,36.871755994838
81,KY0202008,CARLISLE COUNTY BOARD OF EDUCATION,A,CARLISLE,GW,-88.933981,36.834,,,,-88.9339810077375,36.8340000207394
82,KY0200095,CUNNINGHAM WATER DISTRICT,A,CARLISLE,GW,-88.645187,36.568772,,,,-88.6451870169376,36.5687719964523
83,KY0200284,MILBURN WATER DISTRICT,A,CARLISLE,GWP,-88.885114,36.798358,,,,-88.8851140037543,36.7983580133326
84,KY0203742,TRINITY HOLINESS SCHOOL,A,CARLISLE,GW,-88.88978,36.90756,,,,-88.8897800330031,36.9075599711667
85,KY0210066,CARROLL COUNTY WATER DISTRICT #1,A,CARROLL,GW,-86.955976,36.983606,,,,-86.9559760022268,36.9836059902832
86,KY0210067,CARROLLTON UTILITIES,A,CARROLL,GW,-85.17225,38.677573,,,,-85.1722500025387,38.6775729830137
87,KY0210008,WEST CARROLL WATER DISTRICT - CARROLLTON,A,CARROLL,GWP,-85.17225,38.677573,,,,-85.1722500025387,38.6775729830137
88,KY0210637,GRAYSON UTILITY COMMISSION,A,CARROLL,GWP,-85.17225,38.677573,,,,-85.1722500025387,38.6775729830137
89,KY0210419,WEST CARROLL WATER DISTRICT- HENRY CO #2,A,CARROLL,GWP,-85.17225,38.677573,,,,-85.1722500025387,38.6775729830137
90,KY0222251,CAMP ROBERT C WEBB,A,CARTER,GW,-82.978563,38.24185,,,,-82.9785630007405,38.2418500074238
91,KY0220164,GRAYSON UTILITY COMMISSION,A,CARTER,SW,-82.953066,38.317244,,,,-82.9530660281998,38.3172440250245
92,KY0220335,OLIVE HILL MUNICIPAL WATER WORKS,A,CARTER,SW,-83.2601784,37.9210819,,,,-83.2601783744419,37.9210818793905
93,KY0220555,RATTLESNAKE RIDGE WATER DISTRICT,A,CARTER,SW,-82.970708,38.268743,,,,-82.9707080420646,38.2687430172209
94,KY0230556,EAST CASEY COUNTY WATER DISTRICT,A,CASEY,SWP,-84.943319,37.308695,,,,-84.9433190236203,37.3086949874472
95,KY0230987,LIBERTY WATER WORKS,A,CASEY,SW,-84.957722,37.302162,,,,-84.9577219820652,37.3021619993762
96,KY0240521,CHRISTIAN COUNTY WATER DISTRICT,A,CHRISTIAN,SWP,-87.5105252,36.8832086,,,,-87.5105251612293,36.8832085930063
97,KY0241001,FORT CAMPBELL,A,CHRISTIAN,SWP,-87.460122,36.657133,,,,-87.4601220381103,36.6571330201324
98,KY0240201,HOPKINSVILLE WATER ENVIRONMENT AUTHORITY,A,CHRISTIAN,SW,-87.485001,36.863714,,,,-87.4850009697355,36.8637139769129
99,KY0240329,OAK GROVE UTILITIES OFFICE,A,CHRISTIAN,SWP,-87.4083308,36.672275,,,,-87.4083308382142,36.6722750278312
100,KY0250981,EAST CLARK COUNTY WATER DISTRICT,A,CLARK,SWP,-84.1740185,37.9938218,,,,-84.1740185229646,37.9938218199807
101,KY0250473,WINCHESTER MUNICIPAL UTILITIES,A,CLARK,SW,-84.1749784,37.9970781,,,,-84.1749783728457,37.9970780673034
102,KY0260737,MANCHESTER WATER WORKS,A,CLAY,SW,-83.7589828,37.1633748,,,,-83.7589827581514,37.1633748068994
103,KY0260266,NORTH MANCHESTER WATER ASSOC,A,CLAY,SWP,-83.691984,37.089241,,,,-83.6919839788105,37.089240982953
104,KY0270003,ALBANY WATER WORKS,A,CLINTON,SW,-85.135074,36.6916963,,,,-85.1350740329892,36.6916962922879
105,KY0280267,MARION WATER DEPARTMENT,A,CRITTENDEN,SW,-85.1506834,37.4938221,,,,-85.1506834288606,37.4938221286173
106,KY0290049,BURKESVILLE WATER WORKS,A,CUMBERLAND,SW,-85.3670001,36.7877638,,,,-85.3670000848963,36.7877637866561
107,KY0290271,CUMBERLAND COUNTY WATER DISTRICT,A,CUMBERLAND,SWP,-85.3684521,36.8072952,,,,-85.3684521217216,36.8072951725562
108,KY0300109,E DAVIESS COUNTY WATER ASSOC INC,A,DAVIESS,GWP,-86.91419,37.775858,,,,-86.9141899684707,37.7758580327019
109,KY0300320,NORTH MCLEAN COUNTY WATER DISTRICT,A,DAVIESS,SWP,-87.1347412,37.486796,,,,-87.1347411929242,37.4867960310263
110,KY0300336,OWENSBORO MUNICIPAL UTILITIES,A,DAVIESS,GW,-87.1368769,37.7330183,,,,-87.1368769375122,37.7330182733957
111,KY0300387,S E DAVIESS COUNTY WATER DISTRICT,A,DAVIESS,GWP,-87.160506,37.748953,,,,-87.1605060430826,37.7489529800992
112,KY0300450,WEST DAVIESS COUNTY WATER DISTRICT,A,DAVIESS,GWP,-87.160506,37.748953,,,,-87.1605060430826,37.7489529800992
113,KY0300467,WHITESVILLE WATER WORKS,A,DAVIESS,GWP,-86.871563,37.678535,,,,-86.8715630217771,37.6785350343901
114,KY0310706,BROWNSVILLE MUNICIPAL WATER SYSTEM,A,EDMONSON,SWP,-86.263313,37.1911,,,,-86.2633130242475,37.1910999828799
115,KY0310114,EDMONSON COUNTY WATER DISTRICT,A,EDMONSON,SW,-86.282523,37.204757,,,,-86.2825229576093,37.2047569870289
116,KY0310940,MAMMOTH CAVE/CENTRAL SYSTEM,A,EDMONSON,SWP,-85.958223,37.139236,,,,-85.958222965373,37.1392359934421
117,KY0320383,SANDY HOOK WATER DISTRICT,A,ELLIOTT,GW,-83.121912,38.083793,,,,-83.12191202153,38.0837930323111
118,KY0330123,ESTILL COUNTY WATER DISTRICT,A,ESTILL,SWP,-83.989814,37.699014,,,,-83.9898140332218,37.6990140155008
119,KY0330205,IRVINE MUNICIPAL UTILITIES,A,ESTILL,SW,-83.967987,37.69746,,,,-83.9679870379429,37.6974600260463
120,KY0340965,BLUEGRASS STATION,A,FAYETTE,SWP,-84.32311,38.076447,,,,-84.3231100242079,38.0764470283293
121,KY0340250,KENTUCKY-AMERICAN WATER CO,A,FAYETTE,SW,-84.463238,38.013234,,,,-84.4632379558831,38.0132339862381
122,KY0350133,FLEMING CO WATER ASSOCIATION,A,FLEMING,SWP,-83.736887,38.41132,,,,-83.7368869869395,38.4113200077342
123,KY0350134,FLEMINGSBURG UTILITY SYSTEM,A,FLEMING,SW,-83.73406,38.420912,,,,-83.7340599887404,38.4209120323601
124,KY0351008,GREATER FLEMING CO WT COMM,A,FLEMING,GW,-83.63899,38.625115,,,,-83.6389900245806,38.6251149905158
125,KY0360152,FRANCIS WATER COMPANY,A,FLOYD,GW,-82.833271,37.482846,,,,-82.833271013823,37.4828459754675
126,KY0360272,MARTIN WATER DEPARTMENT,A,FLOYD,SWP,-82.533371,37.868705,,,,-82.5333709715025,37.8687049996313
127,KY0360358,PRESTONSBURG CITY UTILITIES,A,FLOYD,SW,-82.742474,37.669277,,,,-82.7424739761436,37.6692770072717
128,KY0360026,SOUTHERN WATER & SEWER DISTRICT,A,FLOYD,SW,-82.736403,37.456116,,,,-82.7364029817905,37.4561159908331
129,KY0360463,WHEELWRIGHT UTILITY COMMISSION,A,FLOYD,GU,-82.720752,37.335587,,,,-82.7207519939214,37.3355870123238
130,KY0370137,ELKHORN WATER DISTRICT,A,FRANKLIN,SWP,-84.730823,38.050931,,,,-84.7308229923195,38.0509310316946
131,KY0370128,FARMDALE WATER DISTRICT,A,FRANKLIN,SWP,-84.926059,38.14076,,,,-84.9260589734143,38.140760015158
132,KY0370143,FRANKFORT PLANT BOARD,A,FRANKLIN,SW,-84.845929,38.188276,,,,-84.8459289805762,38.188276031569
133,KY0370346,PEAKS MILL WATER DISTRICT,A,FRANKLIN,SWP,-84.730823,38.050931,,,,-84.7308229923195,38.0509310316946
134,KY0380149,FULTON MUNICIPAL WATER SYSTEM,A,FULTON,GW,-88.874553,36.503624,,,,-88.8745529601166,36.5036239986021
135,KY0380193,HICKMAN WATER DEPARTMENT,A,FULTON,GW,-89.17827,36.57036,,,,-89.1782700339108,36.5703600187908
136,KY0390130,GALLATIN COUNTY WATER DISTRICT,A,GALLATIN,GW,-84.853072,38.728945,,,,-84.8530720243894,38.7289450249847
137,KY0390444,WARSAW WATER WORKS,A,GALLATIN,GW,-84.899621,38.784985,,,,-84.8996210156135,38.7849850025797
138,KY0390608,RIVER'S EDGE CAMPGROUND,I,GALLATIN,GW,-84.901195,38.783364,,,,-84.9011950436543,38.7833640016046
139,KY0400151,GARRARD CO WATER ASSOC INC,A,GARRARD,SWP,-84.579393,37.627679,,,,-84.5793929967286,37.6276789998164
140,KY0400233,LANCASTER WATER WORKS,A,GARRARD,SW,-84.58772,37.614786,,,,-84.5877200200863,37.614785994498
141,KY0410047,BULLOCK PEN WATER DISTRICT,A,GRANT,SW,-84.606655,38.783319,,,,-84.6066549791396,38.7833189752188
142,KY0410662,CORINTH WATER DISTRICT,A,GRANT,SWP,-84.565056,38.497411,,,,-84.5650559746256,38.4974110022877
143,KY0410107,DRY RIDGE WATER WORKS COMMISSION,A,GRANT,SWP,-84.593455,38.681708,,,,-84.5934550445232,38.6817080339551
144,KY0410472,WILLIAMSTOWN MUNICIPAL WATER DEPT,A,GRANT,SW,-84.559605,38.64072,,,,-84.5596049974816,38.6407199849875
145,KY0420084,GRAVES CO WATER DIST - CONSUMERS,A,GRAVES,GWP,-88.633066,36.741841,,,,-88.6330659589775,36.7418409916509
146,KY0420027,GRAVES CO WATER DIST - FANCY FARM,A,GRAVES,GW,-88.633066,36.741841,,,,-88.6330659589775,36.7418409916509
147,KY0420172,GRAVES CO WATER DIST - HARDEMAN,A,GRAVES,GWP,-88.633066,36.741841,,,,-88.6330659589775,36.7418409916509
148,KY0420194,GRAVES CO WATER DIST - HICKORY,A,GRAVES,GW,-88.633066,36.741841,,,,-88.6330659589775,36.7418409916509
149,KY0420534,GRAVES CO WATER DIST - SEDALIA,A,GRAVES,GW,-88.633066,36.741841,,,,-88.6330659589775,36.7418409916509
150,KY0420405,GRAVES CO WATER DIST - SOUTH GRAVES,A,GRAVES,GW,-88.633066,36.741841,,,,-88.6330659589775,36.7418409916509
151,KY0420274,MAYFIELD ELECTRIC & WATER,A,GRAVES,GW,-88.633066,36.741841,,,,-88.6330659589775,36.7418409916509
152,KY0423170,PILGRIMS PRIDE CORP,A,GRAVES,GW,-88.652352,36.828817,,,,-88.6523519796437,36.8288170073323
153,KY0420971,RECOVERY WORKS,A,GRAVES,GW,-88.749681,36.725736,,,,-88.74968102708,36.7257360003541
154,KY0420423,SYMSONIA WATER DISTRICT,A,GRAVES,GW,-88.50446,36.917084,,,,-88.5044599987994,36.9170840051117
155,KY0420475,WINGO WATER & SEWER DEPARTMENT,A,GRAVES,GW,-88.874553,36.503624,,,,-88.8745529601166,36.5036239986021
156,KY0430063,CANEYVILLE MUNICIPAL WATER WORKS,A,GRAYSON,SWP,-86.485763,37.424313,,,,-86.4857630177171,37.4243130271621
157,KY0430616,GRAYSON COUNTY WATER DISTRICT,A,GRAYSON,SW,-86.459202,37.587736,,,,-86.4592019907224,37.5877360297463
158,KY0430244,LEITCHFIELD WATER WORKS,A,GRAYSON,SW,-86.388006,37.563211,,,,-86.3880060128795,37.5632109859311
159,KY0440167,GREEN TAYLOR WATER DISTRICT,A,GREEN,SWP,-85.493426,37.26867,,,,-85.4934260135429,37.2686700091305
160,KY0440168,GREENSBURG WATER WORKS,A,GREEN,SW,-85.89171,37.271348,,,,-85.8917099949378,37.2713479867587
161,KY0450410,CITY OF SOUTH SHORE WATER WORKS,A,GREENUP,GW,-82.9674647,38.724103,,,,-82.9674646747313,38.7241029714303
162,KY0450132,FLATWOODS WATER COMPANY,A,GREENUP,SWP,-82.72461,38.515,,,,-82.7246099885721,38.5149999719224
163,KY0450169,GREENUP WATER SYSTEM,A,GREENUP,SW,-82.831671,38.574299,,,,-82.8316710244704,38.5742990149532
164,KY0450365,RACELAND WATER SYSTEM,A,GREENUP,SWP,-82.729864,38.54133,,,,-82.7298639651743,38.5413299811159
165,KY0450376,RUSSELL WATER COMPANY,A,GREENUP,SW,-82.696084,38.5324,,,,-82.6960839867249,38.5323999726809
166,KY0450478,WORTHINGTON MUNICIPAL WATER WORKS,A,GREENUP,SWP,-82.724178,38.55043,,,,-82.724177988752,38.5504300190187
167,KY0450479,WURTLAND WATER DEPARTMENT,A,GREENUP,SWP,-82.77979,38.550378,,,,-82.779789993046,38.5503780313068
168,KY0462387,DOMTAR PAPER BLEACHED PULP,A,HANCOCK,GW,-86.751996,37.903278,,,,-86.7519959998194,37.9032779699242
169,KY0462386,DOMTAR PAPER CORRUGATED ME,A,HANCOCK,GW,-86.751996,37.903278,,,,-86.7519959998194,37.9032779699242
170,KY0460182,HAWESVILLE WATER WORKS,A,HANCOCK,GW,-86.747904,37.9020749,,,,-86.7479039940372,37.9020748888622
171,KY0460248,LEWISPORT MUNICIPAL WATER WORKS,A,HANCOCK,GW,-86.899371,37.936805,,,,-86.8993710002177,37.9368049909105
172,KY0470455,CITY OF WEST POINT,A,HARDIN,SWP,-85.935914,37.848415,,,,-85.9359140239441,37.848414983491
173,KY0470990,HARDIN COUNTY WATER DIST #1/FT. KNOX,A,HARDIN,SW,-85.949272,37.809036,,,,-85.949271972219,37.8090360191899
174,KY0470393,HARDIN COUNTY WATER DISTRICT #1,A,HARDIN,SW,-85.949272,37.809036,,,,-85.949271972219,37.8090360191899
175,KY0470175,HARDIN COUNTY WATER DISTRICT #2,A,HARDIN,SW,-85.914377,37.691473,,,,-85.9143770048389,37.6914729919616
176,KY0470440,VINE GROVE WATER DEPARTMENT,A,HARDIN,SWP,-85.98453,37.809683,,,,-85.9845300386369,37.8096829984603
177,KY0480028,BENHAM WATER PLANT,A,HARLAN,SW,-82.954661,36.961143,,,,-82.9546609869867,36.9611430313872
178,KY0480265,BLACK MTN UTILITY/COXTON,A,HARLAN,SWP,-83.349075,36.864965,,,,-83.3490750261377,36.8649650258536
179,KY0480277,BLACK MTN UTILITY/DAYHOIT,A,HARLAN,SWP,-83.349075,36.864965,,,,-83.3490750261377,36.8649650258536
180,KY0480603,BLACK MTN UTILITY/KENVIR,A,HARLAN,SWP,-83.349075,36.864965,,,,-83.3490750261377,36.8649650258536
181,KY0480498,BLACK MTN UTILITY/LOUELLEN,A,HARLAN,GUP,-83.349075,36.864965,,,,-83.3490750261377,36.8649650258536
182,KY0480650,BLACK MTN UTILITY/ROSSPOINT,A,HARLAN,SWP,-83.349075,36.864965,,,,-83.3490750261377,36.8649650258536
183,KY0480461,BLACK MTN UTILITY/SUKEY RIDGE,A,HARLAN,SWP,-83.349075,36.864965,,,,-83.3490750261377,36.8649650258536
184,KY0480572,BLACK MTN UTILITY/WALLINS,A,HARLAN,SWP,-83.349075,36.864965,,,,-83.3490750261377,36.8649650258536
185,KY0480565,CAWOOD WATER DISTRICT,A,HARLAN,SW,-83.235751,36.783714,,,,-83.23575102591,36.783713969252
186,KY0483727,CAWOOD WATER-PATHFORK,A,HARLAN,SWP,-83.222287,36.769796,,,,-83.2222869866001,36.7697960053166
187,KY0480092,CUMBERLAND MUNICIPAL WATER WORKS,A,HARLAN,SW,-82.992681,36.974753,,,,-82.9926810135772,36.9747530355025
188,KY0480125,EVARTS MUNICIPAL WATER PLANT,A,HARLAN,GU,-83.152929,36.869484,,,,-83.1529289618285,36.8694839973051
189,KY0480341,GREEN HILLS WATER DISTRICT,A,HARLAN,SWP,-83.349075,36.864965,,,,-83.3490750261377,36.8649650258536
190,KY0480178,HARLAN MUNICIPAL WATER WORKS,A,HARLAN,SW,-83.321157,36.843835,,,,-83.3211570040747,36.8438350247773
191,KY0482399,KINGDOM COME STATE PARK,A,HARLAN,SW,-82.982056,36.982938,,,,-82.9820560098913,36.9829379910646
192,KY0480262,LYNCH WATER WORKS,A,HARLAN,SW,-82.91227,36.964839,,,,-82.9122700277183,36.9648390011816
193,KY0483135,PINE MT SETTLEMENT SCHOOL,A,HARLAN,SW,-83.184928,36.949398,,,,-83.1849280302272,36.9493980280016
194,KY0490096,CYNTHIANA MUNICIPAL WATER WORKS,A,HARRISON,SW,-84.296198,38.388662,,,,-84.2961980254316,38.3886619945987
195,KY0490179,HARRISON COUNTY WATER ASSOC,A,HARRISON,SWP,-84.314475,38.363418,,,,-84.3144749685392,38.3634179828034
196,KY0500166,GREEN RIVER VALLEY WATER DISTRICT,A,HART,SW,-85.885959,37.178414,,,,-85.8859589804889,37.178413991848
197,KY0500476,HORSE CAVE WATER SYSTEM,A,HART,SWP,-85.885959,37.178414,,,,-85.8859589804889,37.178413991848
198,KY0500305,MUNFORDVILLE WATER DEPT,A,HART,SWP,-85.889886,37.270934,,,,-85.8898859657534,37.2709340112832
199,KY0512406,CENTURY ALUMINUM SEBREE LLC,A,HENDERSON,SW,-87.512155,37.669002,,,,-87.5121549746493,37.6690019677257
200,KY0513013,ELLIS PARK RACE COURSE,A,HENDERSON,GW,-87.561829,37.884793,,,,-87.5618290250837,37.8847930216551
201,KY0510189,HENDERSON COUNTY WATER DISTRICT,A,HENDERSON,SWP,-87.6004,37.83197,,,,-87.6003999884379,37.8319700159721
202,KY0510188,HENDERSON WATER UTILITY/NORTH,A,HENDERSON,SW,-87.581845,37.837985,,,,-87.5818450167499,37.8379849911726
203,KY0510510,HENDERSON WATER UTILITY/SOUTH,A,HENDERSON,SW,-87.581845,37.837985,,,,-87.5818450167499,37.8379849911726
204,KY0512440,TROCADERO PLAZA,A,HENDERSON,GW,-87.517035,37.874873,,,,-87.5170349825987,37.8748729781281
205,KY0520122,EMINENCE WATER WORKS,A,HENRY,GWP,-85.182903,38.369569,,,,-85.1829030336615,38.3695689671238
206,KY0520192,HENRY COUNTY WATER DISTRICT #2,A,HENRY,GW,-85.214609,38.524475,,,,-85.214608981783,38.5244749768144
207,KY0520520,NEW CASTLE WATER WORKS,A,HENRY,GWP,-85.169423,38.433126,,,,-85.1694230043396,38.433126013453
208,KY0530083,COLUMBUS WATER WORKS,A,HICKMAN,GW,-89.100571,36.759647,,,,-89.1005709720631,36.7596469884341
209,KY0530077,WATER SERVICE CORP OF KENTUCKY,A,HICKMAN,GW,-83.708012,36.593757,,,,-83.7080119896044,36.5937570345308
210,KY0540958,DAWSON SPRINGS WATER & SEWER,A,HOPKINS,SW,-87.693239,37.167079,,,,-87.6932389865896,37.167078976118
211,KY0540108,EARLINGTON WATER & SEWER,A,HOPKINS,SWP,-87.51292,37.273957,,,,-87.5129199799452,37.2739570307173
212,KY0540656,HANSON WATER SYSTEM,A,HOPKINS,SWP,-87.481818,37.417431,,,,-87.4818179691893,37.4174310095942
213,KY0540936,MADISONVILLE LIGHT & WATER,A,HOPKINS,SW,-87.498864,37.329438,,,,-87.4988640406946,37.3294380161896
214,KY0540269,MORTONS GAP WATER DEPARTMENT,A,HOPKINS,SWP,-87.473691,37.237195,,,,-87.4736910006454,37.2371949752458
215,KY0540977,NEBO WATER DISTRICT,A,HOPKINS,SWP,-87.642747,37.384503,,,,-87.642747020089,37.3845029701033
216,KY0540138,NORTH HOPKINS WATER DISTRICT,A,HOPKINS,SWP,-87.452812,37.32656,,,,-87.4528119974858,37.3265600213886
217,KY0540328,NORTONVILLE WATER WORKS,A,HOPKINS,GW,-87.455355,37.184794,,,,-87.4553550382236,37.184793968067
218,KY0540406,SOUTH HOPKINS WATER DISTRICT,A,HOPKINS,SWP,-87.691535,37.166682,,,,-87.6915349723271,37.166681966358
219,KY0540465,WHITE PLAINS WATER SYSTEM,A,HOPKINS,GW,-87.383629,37.183512,,,,-87.3836289645315,37.1835120327551
220,KY0550209,JACKSON COUNTY WATER ASSOCIATION,A,JACKSON,SW,-83.914545,37.377691,,,,-83.9145450040492,37.3776909644176
221,KY0550784,MCKEE WATER WORKS,A,JACKSON,SW,-83.966534,37.572186,,,,-83.9665340129709,37.5721859707741
222,KY0560258,LOUISVILLE WATER COMPANY,A,JEFFERSON,SW,-85.756706,38.249166,,,,-85.7567059638116,38.2491660320199
223,KY0570214,JESSAMINE COUNTY WATER DISTRICT #1,A,JESSAMINE,SWP,-84.577225,37.868263,,,,-84.5772250026219,37.8682629866104
224,KY0570249,JESSAMINE S ELKHORN WATER DIST,A,JESSAMINE,SWP,-84.577225,37.868263,,,,-84.5772250026219,37.8682629866104
225,KY0570315,NICHOLASVILLE WATER DEPARTMENT,A,JESSAMINE,SW,-84.487498,37.840877,,,,-84.4874980381091,37.8408769794864
226,KY0570010,WILMORE WATER WORKS,A,JESSAMINE,SW,-84.658924,37.858337,,,,-84.6589239929352,37.8583370288966
227,KY0580340,PAINTSVILLE MUNICIPAL WATER WORKS,A,JOHNSON,SW,-82.804397,37.814187,,,,-82.8043970046347,37.8141869980457
228,KY0590220,NORTHERN KENTUCKY WATER DISTRICT,A,KENTON,SW,-84.453199,39.064914,,,,-84.4531990130884,39.0649140270709
229,KY0602422,CAMP NATHANIEL,A,KNOTT,GW,-83.053648,37.351189,,,,-83.0536479651114,37.3511889904411
230,KY0600198,HINDMAN MUN WATER WORKS,A,KNOTT,SWP,-82.981523,37.337223,,,,-82.9815230394332,37.3372229789451
231,KY0600062,KNOTT COUNTY WATER & SEWER DISTRICT,A,KNOTT,SW,-83.066497,37.739205,,,,-83.0664970177778,37.739204981794
232,KY0600129,PHOENIX PROPERTY OWNERS ASSOC,A,KNOTT,SWP,-83.13139,37.335,,,,-83.1313899664297,37.3349999698164
233,KY0610016,BARBOURVILLE UTILITIES,A,KNOX,SW,-83.887037,36.865761,,,,-83.887036973082,36.8657609804366
234,KY0610110,KNOX COUNTY UTILITY COMMISSION,A,KNOX,SW,-83.811176,36.838309,,,,-83.8111760439687,36.8383090208142
235,KY0620200,HODGENVILLE WATER WORKS,A,LARUE,SW,-85.740438,37.570183,,,,-85.7404380130054,37.570182968264
236,KY0620237,LARUE COUNTY WATER DISTRICT #1,A,LARUE,SWP,-85.691529,37.520496,,,,-85.6915289678669,37.5204960201475
237,KY0630797,EAST LAUREL WATER DISTRICT,A,LAUREL,SWP,-84.0959616,37.1437189,,,,-84.0959615723077,37.1437189277581
238,KY0630238,LAUREL COUNTY WATER DISTRICT #2,A,LAUREL,SW,-84.066346,37.095419,,,,-84.0663460038524,37.0954189713787
239,KY0630255,LONDON UTILITY COMMISSION,A,LAUREL,SW,-84.08854,37.13228,,,,-84.0885399609249,37.1322800198739
240,KY0630451,WEST LAUREL WATER ASSOC INC,A,LAUREL,SWP,-84.0959616,37.1437189,,,,-84.0959615723077,37.1437189277581
241,KY0630477,WOOD CREEK WATER DISTRICT,A,LAUREL,SW,-84.135433,37.251531,,,,-84.1354330069028,37.2515310137094
242,KY0640257,LOUISA WATER DEPARTMENT,A,LAWRENCE,SW,-82.603708,38.11654,,,,-82.6037079802707,38.1165399808806
243,KY0642666,DOCKS PIZZA INC,I,LAWRENCE,GW,-82.658171,37.995381,,,,-82.6581710393163,37.9953809742889
244,KY0650024,BEATTYVILLE WATER WORKS,A,LEE,SW,-83.705247,37.571568,,,,-83.7052469751599,37.5715680304521
245,KY0660204,HYDEN LESLIE CO WATER DISTRICT,A,LESLIE,SW,-83.37828,37.143203,,,,-83.3782799746766,37.1432029988919
246,KY0672292,ARLIE BOGG ELEMENTARY SCHOOL,A,LETCHER,GW,-82.836472,37.12065,,,,-82.8364719806749,37.1206499966151
247,KY0670279,FLEMING-NEON WATER COMPANY,A,LETCHER,SWP,-82.7128,37.19701,,,,-82.7128000171948,37.1970099802751
248,KY0670213,JENKINS WATER SYSTEM,A,LETCHER,SW,-82.63417,37.170681,,,,-82.6341700312182,37.1706810321135
249,KY0670462,LETCHER COUNTY WATER DISTRICT,A,LETCHER,SWP,-82.82713,37.11785,,,,-82.8271300407092,37.1178499809409
250,KY0670466,WHITESBURG WATER WORKS,A,LETCHER,SW,-82.83311,37.12197,,,,-82.8331100357241,37.1219700294805
251,KY0680153,GARRISON QUINCY HEIGHTS WATER DISTRICT,A,LEWIS,GW,-83.179169,38.608699,,,,-83.1791690207722,38.6086989912718
252,KY0680438,VANCEBURG ELECTRIC PLANT BOARD,A,LEWIS,SWP,-83.314329,38.600559,,,,-83.3143289994317,38.6005590152694
253,KY0690089,CRAB ORCHARD WATER DISTRICT,A,LINCOLN,SWP,-84.506342,37.46161,,,,-84.506341997824,37.4616100111498
254,KY0690203,HUSTONVILLE WATER WORKS,A,LINCOLN,SWP,-84.749382,37.441818,,,,-84.7493820064263,37.4418179662712
255,KY0690278,MCKINNEY WATER DISTRICT,A,LINCOLN,SWP,-84.80767,37.381452,,,,-84.8076700021202,37.3814519881608
256,KY0690417,STANFORD WATER WORKS,A,LINCOLN,SW,-84.648305,37.530289,,,,-84.6483050079617,37.5302889929178
257,KY0700532,CRITTENDEN-LIVINGSTON CO WATER DISTRICT,A,LIVINGSTON,SW,-88.230801,37.263529,,,,-88.2308010035694,37.2635290345738
258,KY0700162,GRAND RIVERS WATER SYSTEM,A,LIVINGSTON,SWP,-88.234609,37.001118,,,,-88.2346089620588,37.0011179771975
259,KY0700243,LEDBETTER WATER DISTRICT,A,LIVINGSTON,SWP,-88.47305,37.047518,,,,-88.4730499557325,37.0475179645609
260,KY0700380,SALEM MUNICIPAL WATER SYSTEM,A,LIVINGSTON,SWP,-88.271813,37.291567,,,,-88.2718129590452,37.2915670344642
261,KY0700401,SMITHLAND WATER & SEWER,A,LIVINGSTON,SWP,-88.450027,37.240111,,,,-88.4500270333158,37.240111003025
262,KY0710001,ADAIRVILLE WATER WORKS,A,LOGAN,SWP,-86.858123,36.662657,,,,-86.8581229674853,36.6626570271747
263,KY0710012,AUBURN MUN WATER WORKS,A,LOGAN,SWP,-86.709649,36.863367,,,,-86.7096489681684,36.8633669827469
264,KY0710951,EAST LOGAN WATER DISTRICT,A,LOGAN,SWP,-86.874913,36.845123,,,,-86.8749130191346,36.8451229903822
265,KY0710247,LEWISBURG WATER WORKS,A,LOGAN,SWP,-86.95055,36.986145,,,,-86.9505499982476,36.9861449652732
266,KY0710318,NORTH LOGAN WATER DISTRICT,A,LOGAN,SWP,-86.918466,36.880844,,,,-86.9184660390546,36.8808440277772
267,KY0710378,RUSSELLVILLE MUN WATER WORKS,A,LOGAN,SWP,-86.918466,36.880844,,,,-86.9184660390546,36.8808440277772
268,KY0710707,SOUTH LOGAN WATER ASSOCIATION,A,LOGAN,SWP,-86.851803,36.667198,,,,-86.8518029601354,36.667198023846
269,KY0722918,BUZZARD ROCK RESORT AND MARINA,A,LYON,GW,-88.143517,37.042058,,,,-88.1435170074717,37.0420579816571
270,KY0722980,EDDY CREEK MARINA RESORT LLC,A,LYON,GW,-88.016331,37.004908,,,,-88.0163310142633,37.0049079911197
271,KY0720113,EDDYVILLE WATER DEPARTMENT,A,LYON,SW,-88.085866,37.089731,,,,-88.0858660071458,37.0897309812166
272,KY0720552,KENTUCKY STATE PENITENTIARY,A,LYON,SW,-88.076342,37.048047,,,,-88.0763419786721,37.0480470206935
273,KY0720227,KUTTAWA WATER DEPARTMENT,A,LYON,SW,-88.17196,37.048229,,,,-88.1719600049867,37.0482289881925
274,KY0720933,LYON COUNTY WATER DISTRICT,A,LYON,SWP,-88.17196,37.048229,,,,-88.1719600049867,37.0482289881925
275,KY0720553,BAR X TRAILER PARK,I,LYON,GW,-88.169854,37.049276,,,,-88.1698539946346,37.049275973959
276,KY0760030,BEREA MUNICIPAL UTILITIES,A,MADISON,SW,-84.2776092,37.5738828,,,,-84.2776091872573,37.5738827705084
277,KY0762637,BLUE GRASS ARMY DEPOT,A,MADISON,SW,-84.25764,37.681613,,,,-84.2576399978175,37.6816129900429
278,KY0760672,KIRKSVILLE WATER ASSOCIATION,A,MADISON,SWP,-84.327751,37.777317,,,,-84.3277509904602,37.7773170090185
279,KY0760224,MADISON CO UTILITIES DISTRICT,A,MADISON,SWP,-84.327751,37.777317,,,,-84.3277509904602,37.7773170090185
280,KY0760370,RICHMOND UTILITIES,A,MADISON,SW,-84.287003,37.746708,,,,-84.2870029600149,37.746707976358
281,KY0760407,SOUTHERN MADISON WATER DISTRICT,A,MADISON,SWP,-84.3194009,37.5761289,,,,-84.3194008803997,37.5761288774616
282,KY0770525,MAGOFFIN COUNTY WATER DISTRICT,A,MAGOFFIN,SWP,-83.054873,37.744247,,,,-83.0548729976643,37.7442470313631
283,KY0770566,SALYERSVILLE MUNICIPAL WATER,A,MAGOFFIN,SW,-83.0664975,37.7388942,,,,-83.0664974669354,37.7388941845828
284,KY0780241,LEBANON WATER WORKS CO INC,A,MARION,SW,-85.254621,37.569588,,,,-85.254621022516,37.5695880094666
285,KY0780268,MARION COUNTY WATER DISTRICT,A,MARION,SWP,-85.2816175,37.5567065,,,,-85.281617462929,37.5567065132707
286,KY0790029,BENTON WATER & SEWER,A,MARSHALL,GW,-88.3506745,36.8585377,,,,-88.3506745307021,36.8585377212189
287,KY0790056,CALVERT CITY MUNICIPAL WATER DEPARTMENT,A,MARSHALL,GW,-88.342557,37.024819,,,,-88.3425569944687,37.0248189954936
288,KY0790173,HARDIN WATER DEPARTMENT,A,MARSHALL,GWP,-85.9153568,37.6798598,,,,-85.9153567973193,37.6798597803161
289,KY0790216,JONATHAN CREEK WATER DISTRICT,A,MARSHALL,GW,-88.305502,36.888765,,,,-88.3055020279879,36.888764975596
290,KY0790319,NORTH MARSHALL WATER DISTRICT #1,A,MARSHALL,GW,-88.344391,36.927617,,,,-88.3443909949527,36.9276170202784
291,KY0792758,SHAWNEE BAY RESORT,A,MARSHALL,GW,-88.3548,36.8806,,,,-88.3548000436444,36.8806000080653
292,KY0800273,MARTIN CO WATER DISTRICT #1,A,MARTIN,SW,-82.5205818,37.8699645,,,,-82.5205818364655,37.8699645059073
293,KY0810046,BUFFALO TRAIL WATER ASSOC,A,MASON,SWP,-83.8418974,38.5175801,,,,-83.8418974385387,38.5175800665585
294,KY0810275,MAYSVILLE UTILITY COMMISSION,A,MASON,SW,-83.7603182,38.6449108,,,,-83.7603181936528,38.6449107674721
295,KY0810366,WESTERN LEWIS RECTORVILLE WATER DISTRICT,A,MASON,SWP,-83.6563853,38.5802302,,,,-83.6563852712369,38.5802302114563
296,KY0810460,WESTERN MASON CO WATER DISTRICT,A,MASON,GW,-83.8758422,38.7519508,,,,-83.8758421680113,38.7519508063184
297,KY0732457,"FOUR RIVERS NUCLEAR PARTNERSHIP, LLC",A,MCCRACKEN,SW,-88.8764,37.0872,,,,-88.8763999861722,37.0871999821369
298,KY0730522,LOCUST VALLEY MOBILE EST,A,MCCRACKEN,GW,-88.13425,36.588355,,,,-88.1342499870007,36.5883550346555
299,KY0730533,PADUCAH WATER WORKS,A,MCCRACKEN,SW,-88.624178,37.09721,,,,-88.6241780275564,37.0972099764913
300,KY0730454,WEST MCCRACKEN CO WATER DISTRICT,A,MCCRACKEN,SWP,-88.750023,37.09891,,,,-88.7500230157087,37.0989100164699
301,KY0740276,MCCREARY COUNTY WATER DISTRICT,A,MCCREARY,SW,-84.464547,36.714969,,,,-84.4645469809151,36.7149689945064
302,KY0750529,BEECH GROVE WATER SYSTEM,A,MCLEAN,SWP,-87.2773,37.575,,,,-87.2772999657582,37.5749999943409
303,KY0750055,CALHOUN WATER WORKS,A,MCLEAN,SWP,-87.2602684,37.5367271,,,,-87.260268357129,37.5367271023649
304,KY0750207,ISLAND WATER DEPARTMENT,A,MCLEAN,SWP,-87.190034,37.449723,,,,-87.1900340257977,37.4497229893927
305,KY0750252,LIVERMORE WATER WORKS,A,MCLEAN,SWP,-87.136361,37.48815,,,,-87.1363610350445,37.4881499964841
306,KY0753505,MCLEAN COUNTY REGIONAL WATER COMMISSION,A,MCLEAN,SW,-87.2773,37.575,,,,-87.2772999657582,37.5749999943409
307,KY0750907,SACRAMENTO WATER WORKS,A,MCLEAN,SWP,-87.2736,37.4177,,,,-87.273599984766,37.4176999868378
308,KY0820041,BRANDENBURG WATER WORKS,A,MEADE,GW,-86.1740632,37.9987898,,,,-86.1740632448136,37.9987897744523
309,KY0820641,DOE VALLEY UTILITIES INC,A,MEADE,GWP,-86.1084,37.9662,,,,-86.1083999908056,37.9662000268882
310,KY0820369,MEADE COUNTY WATER DISTRICT,A,MEADE,SWP,-86.1707402,37.984404,,,,-86.1707401969146,37.9844040329288
311,KY0822462,"MONUMENT CHEMICAL KENTUCKY, LLC",A,MEADE,GW,-86.1321374,37.9977815,,,,-86.1321374331993,37.9977815144025
312,KY0820481,MULDRAUGH WATER DEPARTMENT,A,MEADE,SWP,-86.007605,37.955796,,,,-86.0076049735086,37.9557959941231
313,KY0831010,CAVE RUN REGIONAL WT COMM,A,MENIFEE,SW,-83.494172,37.96341,,,,-83.494171988807,37.963409987515
314,KY0830148,FRENCHBURG WATER COMPANY,A,MENIFEE,SWP,-83.627256,37.938541,,,,-83.6272559608448,37.9385409875601
315,KY0833498,GLADIE HISTORIC SITE,A,MENIFEE,SW,-83.7853,37.8223,,,,-83.7852999823781,37.8223000189723
316,KY0840048,BURGIN WATER DEPARTMENT,A,MERCER,SWP,-84.7666712,37.7527946,,,,-84.7666711620475,37.7527946012724
317,KY0840180,HARRODSBURG MUNICIPAL WATER DEPARTMENT,A,MERCER,SW,-84.843464,37.76069,,,,-84.8434640034366,37.7606900172748
318,KY0840587,LAKE VILLAGE WATER ASSOCIATION,A,MERCER,SWP,-84.757369,37.7611519,,,,-84.757369017449,37.7611519207463
319,KY0840321,NORTH MERCER WATER DISTRICT,A,MERCER,SWP,-84.85907,37.919324,,,,-84.85906998571,37.9193239980503
320,KY0843034,"CAITLAN & FRIENDS, LLC",I,MERCER,GW,-84.7872,37.799048,,,,-84.7872000019094,37.7990480011275
321,KY0850115,EDMONTON WATER WORKS,A,METCALFE,SWP,-85.610743,36.9790253,,,,-85.6107430252085,36.9790253166846
322,KY0860141,FOUNTAIN RUN WATER DISTRICT #1,A,MONROE,SWP,-85.9676371,36.720989,,,,-85.9676371298875,36.7209889974414
323,KY0860150,MONROE COUNTY WATER DISTRICT,A,MONROE,SW,-85.5870723,36.6886043,,,,-85.5870723276404,36.6886043066079
324,KY0860426,TOMPKINSVILLE WATER WORKS,A,MONROE,SW,-85.702781,36.674048,,,,-85.7027809956212,36.6740480310578
325,KY0870212,JEFFERSONVILLE WATER SYSTEM,A,MONTGOMERY,SWP,-83.850319,37.980973,,,,-83.8503189646643,37.9809729682418
326,KY0870147,JUDY WATER ASSOCIATION,A,MONTGOMERY,SWP,-83.9504143,38.0920579,,,,-83.9504142841865,38.0920578893357
327,KY0870246,LEVEE RD WATER ASSOCIATION INC,A,MONTGOMERY,SWP,-83.949897,38.033139,,,,-83.9498970342459,38.033138996826
328,KY0870290,MONTGOMERY CO WATER DISTRICT #1,A,MONTGOMERY,SWP,-83.899095,38.001005,,,,-83.8990949693092,38.0010050238076
329,KY0870298,MT STERLING WATER WORKS,A,MONTGOMERY,SW,-83.935712,38.057768,,,,-83.935712007089,38.0577679923823
330,KY0870367,REID VILLAGE WATER DISTRICT,A,MONTGOMERY,SWP,-83.9635275,38.0531731,,,,-83.963527531378,38.0531730706073
331,KY0880594,MORGAN COUNTY WATER DISTRICT,A,MORGAN,SWP,-83.257354,37.921362,,,,-83.2573539813571,37.9213620055156
332,KY0880452,WEST LIBERTY WATER COMPANY,A,MORGAN,SW,-83.2601784,37.9210819,,,,-83.2601783744419,37.9210818793905
333,KY0890071,CENTRAL CITY WATER & SEWER,A,MUHLENBERG,SW,-87.122743,37.3059,,,,-87.1227430244949,37.305900012682
334,KY0890106,DRAKESBORO WATER DEPARTMENT,A,MUHLENBERG,SWP,-87.049367,37.217278,,,,-87.0493670151205,37.2172780231817
335,KY0890170,GREENVILLE UTILITIES COMMISSION,A,MUHLENBERG,SW,-87.1755,37.200145,,,,-87.1755000031529,37.2001450128457
336,KY0890302,MUHLENBERG CO WATER DISTRICT,A,MUHLENBERG,SWP,-87.1766796,37.2225943,,,,-87.1766795809525,37.2225943314053
337,KY0890304,MUHLENBERG CO WATER DISTRICT #3,A,MUHLENBERG,SWP,-87.1766796,37.2225943,,,,-87.1766795809525,37.2225943314053
338,KY0900017,BARDSTOWN MUNICIPAL WATER DEPT,A,NELSON,SW,-85.4613,37.8083,,,,-85.4613000131945,37.8083000343432
339,KY0900031,BLOOMFIELD WATER & SEWER DEPT,A,NELSON,SWP,-85.3202573,37.9130978,,,,-85.3202573270655,37.9130978008621
340,KY0900312,NEW HAVEN MUNICIPAL WATER WORKS,A,NELSON,SWP,-85.592944,37.6583493,,,,-85.592943985832,37.6583493030177
341,KY0900323,NORTH NELSON WATER DISTRICT,A,NELSON,SWP,-85.4703805,37.8866691,,,,-85.4703805434125,37.8866691343149
342,KY0910065,CARLISLE WATER DEPARTMENT,A,NICHOLAS,SW,-84.027539,38.3131812,,,,-84.0275389632415,38.3131811806116
343,KY0910314,NICHOLAS COUNTY WATER DISTRICT,A,NICHOLAS,SWP,-84.0546754,38.3335388,,,,-84.0546753611757,38.3335387874428
344,KY0910675,WESTERN FLEMING WATER DISTRICT,A,NICHOLAS,SW,-83.86145,38.426987,,,,-83.8614499893498,38.4269869794147
345,KY0920025,BEAVER DAM MUNICIPAL WATER & SEWER,A,OHIO,GW,-83.86145,38.426987,,,,-83.8614499893498,38.4269869794147
346,KY0920070,CENTERTOWN WATER SYSTEM,A,OHIO,SWP,-87.026291,37.408269,,,,-87.0262910022705,37.4082690108147
347,KY0920136,FORDSVILLE WATER DISTRICT,A,OHIO,SWP,-86.691539,37.641199,,,,-86.691539021872,37.6411990156163
348,KY0920181,HARTFORD MUNICIPAL WATER WORKS,A,OHIO,SW,-86.9099875,37.4519806,,,,-86.9099874699085,37.4519806091836
349,KY0920332,OHIO COUNTY WATER DISTRICT,A,OHIO,SW,-86.9073278,37.4508209,,,,-86.9073278278468,37.450820892735
350,KY0920631,PERDUE FARMS INC,A,OHIO,SW,-86.800383,37.344709,,,,-86.8003830339463,37.3447089732741
351,KY0930481,LAGRANGE UTILITIES COMMISSION,A,OLDHAM,GWP,-85.330426,38.444201,,,,-85.3304259865872,38.4442010338882
352,KY0930333,OLDHAM COUNTY WATER DISTRICT,A,OLDHAM,GW,-85.3998387,38.3959513,,,,-85.3998387187595,38.3959513216545
353,KY0950036,BOONEVILLE WATER AND SEWER,A,OWSLEY,SW,-83.671869,37.472785,,,,-83.6718689928001,37.4727849862098
354,KY0960051,BUTLER WATER WORKS,A,PENDLETON,SWP,-86.684412,37.224731,,,,-86.6844119680709,37.2247309642706
355,KY0960112,EAST PENDLETON WATER DISTRICT,A,PENDLETON,SWP,-84.337164,38.675757,,,,-84.3371639871648,38.6757570335425
356,KY0960126,FALMOUTH WATER DEPARTMENT,A,PENDLETON,SW,-84.3250777,38.6750378,,,,-84.3250776940062,38.6750377662371
357,KY0960348,PENDLETON CO WATER DISTRICT #1 / NORTH,A,PENDLETON,SWP,-84.330066,38.676971,,,,-84.3300660387789,38.6769709911209
358,KY0960499,PENDLETON CO WATER DISTRICT #1/SOUTH,A,PENDLETON,SWP,-84.330066,38.676971,,,,-84.3300660387789,38.6769709911209
359,KY0970184,HAZARD WATER DEPARTMENT,A,PERRY,SW,-83.186427,37.246239,,,,-83.1864269591103,37.2462389851999
360,KY0970484,PERRY COUNTY WATER & SEWER,A,PERRY,SWP,-83.080165,37.206099,,,,-83.0801649746572,37.2060990195105
361,KY0971007,VILLAGE OF BUCKHORN,A,PERRY,SWP,-83.50558,37.308336,,,,-83.5055799640946,37.308336020099
362,KY0980120,ELKHORN CITY WATER DEPT,A,PIKE,SWP,-82.3467409,37.3041144,,,,-82.346740940661,37.3041143811962
363,KY0980575,MOUNTAIN WATER DIST,A,PIKE,SW,-82.457947,37.549547,,,,-82.4579469829433,37.5495470274917
364,KY0980350,PIKEVILLE WATER DEPARTMENT,A,PIKE,SW,-82.5156066,37.4823208,,,,-82.5156066070959,37.4823208206176
365,KY0990281,BEECH FORK WATER COMMISSION,A,POWELL,SW,-83.890383,37.863174,,,,-83.8903830178523,37.8631740081462
366,KY0990074,CLAY CITY WATER SYSTEM,A,POWELL,SWP,-83.9234966,37.8620572,,,,-83.923496626024,37.8620572211494
367,KY0990357,POWELL VALLEY WATER DISTRICT,A,POWELL,SWP,-83.9384896,37.8642414,,,,-83.9384895979475,37.8642414185739
368,KY0990418,STANTON WATER WORKS,A,POWELL,SWP,-83.8592223,37.8535957,,,,-83.8592222572767,37.8535956996194
369,KY1000043,BRONSTON WATER ASSOCIATON INC,A,PULASKI,SWP,-84.6238976,36.9877727,,,,-84.6238976020291,36.9877727263536
370,KY1000050,BURNSIDE WATER COMPANY,A,PULASKI,SW,-84.604038,36.992724,,,,-84.6040380070539,36.992724034422
371,KY1000124,EUBANK WATER SYSTEM,A,PULASKI,SWP,-84.65856,37.27841,,,,-84.6585599955821,37.2784100248279
372,KY1000362,SCIENCE HILL WATER WORKS,A,PULASKI,SWP,-84.6487,37.1683,,,,-84.6486999971921,37.1682999863933
373,KY1000403,SOMERSET WATER SERVICE,A,PULASKI,SW,-84.6035288,37.0986762,,,,-84.6035288419508,37.0986762247232
374,KY1000311,SOUTHEASTERN WATER ASSOC/NELSON VALLEY,A,PULASKI,SWP,-84.6011502,37.108585,,,,-84.60115019291,37.1085849801457
375,KY1000363,WESTERN PULASKI COUNTY WATER DISTRICT,A,PULASKI,SWP,-84.619162,37.095363,,,,-84.6191620431773,37.0953630107434
376,KY1000973,WOODSON BEND PROPERTY OWNERS ASSOC,A,PULASKI,SW,-84.5221,39.2663,,,,-84.5220999750435,39.2663000332115
377,KY1010297,MT OLIVET WATER DEPARTMENT,A,ROBERTSON,SWP,-84.035521,38.531101,,,,-84.0355210335301,38.5311009968462
378,KY1020889,BRODHEAD WATER WORKS,A,ROCKCASTLE,SWP,-84.41383,37.40425,,,,-84.4138299864358,37.4042500126688
379,KY1020288,KENTUCKY AMERICAN WATER - EASTERN ROCKCA,A,ROCKCASTLE,SWP,-84.4634596,38.0158615,,,,-84.4634595702637,38.0158614771375
380,KY1020253,LIVINGSTON MUNICIPAL WATER WORKS,A,ROCKCASTLE,SWP,-84.2143173,37.2964058,,,,-84.2143173059363,37.2964058115431
381,KY1020299,MT VERNON WATER WORKS,A,ROCKCASTLE,SW,-84.3401106,37.3543147,,,,-84.3401106409598,37.3543146810552
382,KY1020891,WESTERN ROCKCASTLE WATER ASSOCIATION,A,ROCKCASTLE,SWP,-84.370514,37.328657,,,,-84.3705140319193,37.3286569897306
383,KY1030480,MOREHEAD STATE UNIVERSITY,A,ROWAN,SW,-83.430193,38.185818,,,,-83.4301929861252,38.1858179802289
384,KY1030292,MOREHEAD UTILITY PLANT BOARD,A,ROWAN,SW,-83.4342408,38.1807509,,,,-83.4342407947954,38.180750869297
385,KY1030375,ROWAN WATER INC.,A,ROWAN,SWP,-83.3849183,38.1907102,,,,-83.3849182551317,38.1907102065096
386,KY1040210,JAMESTOWN MUNICIPAL WATER WORKS,A,RUSSELL,SW,-85.060584,36.9711206,,,,-85.0605840228309,36.9711206328013
387,KY1040377,RUSSELL SPRINGS WATER & SEWER,A,RUSSELL,SWP,-85.0375,37.0551,,,,-85.0375000149749,37.0550999853779
388,KY1050157,GEORGETOWN MUNICIPAL WATER SERVICE,A,SCOTT,SW,-84.5625715,38.2101766,,,,-84.5625715040443,38.2101765834
389,KY1060324,NORTH SHELBY WATER DISTRICT,A,SHELBY,SWP,-85.057397,38.262248,,,,-85.0573969798659,38.2622480127429
390,KY1060394,SHELBYVILLE WATER & SEWER COMMISSION,A,SHELBY,SW,-85.2351998,38.212526,,,,-85.2351998053995,38.2125260330534
391,KY1060436,US 60 WATER DISTRICT,A,SHELBY,SWP,-85.057397,38.262248,,,,-85.0573969798659,38.2622480127429
392,KY1060457,WEST SHELBY WATER DISTRICT,A,SHELBY,SWP,-85.3548,38.2312,,,,-85.3547999751912,38.2311999987344
393,KY1070144,FRANKLIN WATER WORKS,A,SIMPSON,SW,-86.3941935,36.9338853,,,,-86.394193518725,36.9338852786639
394,KY1070398,SIMPSON COUNTY WATER DISTRICT,A,SIMPSON,SWP,-86.5785682,36.7312412,,,,-86.5785682392141,36.7312411856513
395,KY1080425,TAYLORSVILLE WATER WORKS,A,SPENCER,SWP,-85.353169,38.018415,,,,-85.3531689939613,38.0184149895544
396,KY1090060,CAMPBELLSVILLE MUNICIPAL WATER,A,TAYLOR,SW,-85.3335814,37.3311569,,,,-85.3335814088541,37.3311569029668
397,KY1100121,ELKTON WATER WORKS,A,TODD,SWP,-87.1461013,36.8034908,,,,-87.1461012880072,36.8034907981726
398,KY1100171,GUTHRIE WATER WORKS,A,TODD,SWP,-87.1502,36.7149,,,,-87.150200031154,36.7149000082217
399,KY1101005,LOGAN-TODD REGIONAL WATER COMMISSION,A,TODD,SW,-87.1558816,36.6514652,,,,-87.1558816058315,36.651465197178
400,KY1100944,TODD COUNTY WATER DISTRICT,A,TODD,SWP,-87.1678,36.9094,,,,-87.1678000038635,36.9094000123925
401,KY1100428,TRENTON WATER WORKS,A,TODD,SWP,-87.1948795,36.6465582,,,,-87.1948795384403,36.6465582145503
402,KY1110019,BARKLEY LAKE WATER DISTRICT,A,TRIGG,SW,-87.954847,36.81085,,,,-87.9548469924516,36.8108500091556
403,KY1110054,CADIZ MUNICIPAL WATER COUNTY,A,TRIGG,SW,-87.838326,36.860038,,,,-87.8383259779593,36.8600379723159
404,KY1112365,LBL CAMP ENERGY,A,TRIGG,GW,-88.02419,36.78561,,,,-88.0241900153579,36.7856100163604
405,KY1112212,LBL CRAVENS BAY,A,TRIGG,GW,-88.02419,36.78561,,,,-88.0241900153579,36.7856100163604
406,KY1112486,LBL FENTON LAKE ACCESS,A,TRIGG,GW,-88.02419,36.78561,,,,-88.0241900153579,36.7856100163604
407,KY1112211,"LBL HILLMAN FERRY A, B & C",A,TRIGG,GW,-88.02419,36.78561,,,,-88.0241900153579,36.7856100163604
408,KY1112364,LBL MAINTENANCE CENTER,A,TRIGG,GW,-88.02419,36.78561,,,,-88.0241900153579,36.7856100163604
409,KY1112210,LBL NORTH ENTRANCE STATION,A,TRIGG,GW,-88.02419,36.78561,,,,-88.0241900153579,36.7856100163604
410,KY1113460,LBL OFF HWY VEHICLE AREA,A,TRIGG,GW,-88.02419,36.78561,,,,-88.0241900153579,36.7856100163604
411,KY1112213,LBL WOODLAND NATURE CENTER,A,TRIGG,GW,-88.02419,36.78561,,,,-88.0241900153579,36.7856100163604
412,KY1112837,LBL WRANGLERS CAMP,A,TRIGG,GW,-88.02419,36.78561,,,,-88.0241900153579,36.7856100163604
413,KY1120289,MILTON WATER & SEWER DEPARTMENT,A,TRIMBLE,GW,-85.3659,38.6925,,,,-85.3659000079994,38.6924999768069
414,KY1120431,TRIMBLE CO WATER DISTRICT #1,A,TRIMBLE,GW,-83.3436158,36.8501965,,,,-83.343615784493,36.8501964982564
415,KY1130293,MORGANFIELD WATER WORKS,A,UNION,SW,-87.911931,37.6897597,,,,-87.9119309678996,37.6897596816424
416,KY1130422,STURGIS WATER WORKS,A,UNION,SW,-87.9965,37.5487,,,,-87.9964999857141,37.5486999933915
417,KY1130433,UNION COUNTY WATER DISTRICT,A,UNION,SWP,-87.9134737,37.6879427,,,,-87.9134737345686,37.6879426849568
418,KY1130434,UNIONTOWN WATER & SEWER DEPT,A,UNION,SWP,-87.936367,37.772743,,,,-87.9363670300897,37.7727430204872
419,KY1140038,BOWLING GREEN MUNICIPAL UTILITIES,A,WARREN,SW,-86.442566,36.995047,,,,-86.4425660001442,36.9950470329339
420,KY1140487,WARREN COUNTY WATER DISTRICT,A,WARREN,SWP,-86.427498,36.992354,,,,-86.4274980188945,36.9923540212822
421,KY1150415,SPRINGFIELD WATER WORKS,A,WASHINGTON,SW,-85.227255,37.687517,,,,-85.2272550151952,37.6875170065271
422,KY1160291,MONTICELLO WATER & SEWER COMMISSION,A,WAYNE,SW,-84.793008,36.937563,,,,-84.7930079695474,36.9375629693987
423,KY1170073,CLAY WATER WORKS,A,WEBSTER,SWP,-83.922689,37.861463,,,,-83.9226890405835,37.8614629703797
424,KY1170104,DIXON WATER DEPARTMENT,A,WEBSTER,SWP,-87.69113,37.517693,,,,-87.6911300117971,37.5176929772648
425,KY1170361,PROVIDENCE WATER WORKS,A,WEBSTER,SW,-87.7682474,37.394065,,,,-87.7682474144983,37.3940649737568
426,KY1170388,SEBREE WATER DEPARTMENT,A,WEBSTER,SWP,-87.5342284,37.6081041,,,,-87.5342283778107,37.6081041300313
427,KY1170400,SLAUGHTERS WATER WORKS,A,WEBSTER,SWP,-87.5053,37.5054,,,,-87.5053000205477,37.5053999838054
428,KY1170995,WEBSTER CO WATER DISTRICT,A,WEBSTER,SW,-87.67168,37.519247,,,,-87.6716799587599,37.5192470221543
429,KY1180085,CORBIN UTILITIES COMMISSION,A,WHITLEY,SW,-84.1125446,36.9249384,,,,-84.1125445622841,36.9249384270675
430,KY1180093,CUMBERLAND FALLS HIGHWAY WATER DISTRICT,A,WHITLEY,SWP,-84.121589,36.91833,,,,-84.1215889802277,36.9183300141569
431,KY1180468,WHITLEY CO WATER DISTRICT,A,WHITLEY,SWP,-84.1394,36.747,,,,-84.1393999671975,36.7470000195892
432,KY1183728,WHITLEY CO. WATER DISTRICT 92 WEST,A,WHITLEY,SWP,-84.1394,36.747,,,,-84.1393999671975,36.7470000195892
433,KY1180471,WILLIAMSBURG WATER DEPARTMENT,A,WHITLEY,SW,-84.1736193,36.7426381,,,,-84.1736193116524,36.7426380830393
434,KY1190061,CAMPTON WATER SYSTEM,A,WOLFE,SW,-83.494,37.7287,,,,-83.4939999614301,37.7287000232663
435,KY1193703,RED RIVER ROCKHOUSE,A,WOLFE,GW,-84.198704,37.986558,,,,-84.1987039574776,37.9865579781523
436,KY1200283,MIDWAY MUNICIPAL WATER WORKS,A,WOODFORD,SWP,-84.6928,38.1487,,,,-84.6928000012885,38.1487000341909
437,KY1200310,NE WOODFORD CO WATER DISTRICT,A,WOODFORD,SWP,-84.7306372,38.0512596,,,,-84.7306372207187,38.0512596137066
438,KY1200411,SOUTH WOODFORD CO WATER DISTRICT,A,WOODFORD,SWP,-84.7135736,38.0585946,,,,-84.7135736320653,38.0585945666903
439,KY1200439,VERSAILLES WATER SYSTEM,A,WOODFORD,SW,-84.802759,38.0338302,,,,-84.8027590022934,38.0338302109853
